{"type": "FeatureCollection", "features": [ {"type": "Feature", "properties": {"norad_id": 36692, "name": "FENGYUN 1C DEB", "group": "fengyun-1c-debris", "lat": -35.1413960582871, "lon": -84.19160673263075, "alt_km": 840.3818570153408, "timestamp": "2025-12-27T10:28:59.083257+00:00", "meta": {"OBJECT_NAME": "FENGYUN 1C DEB", "OBJECT_ID": "1999-025DZN", "EPOCH": "2025-12-24T13:43:23.157120", "MEAN_MOTION": 13.93485945, "ECCENTRICITY": 0.01144657, "INCLINATION": 99.9949, "RA_OF_ASC_NODE": 265.5847, "ARG_OF_PERICENTER": 342.2339, "MEAN_ANOMALY": 17.4832, "EPHEMERIS_TYPE": 0, "CLASSIFICATION_TYPE": "U", "NORAD_CAT_ID": 36692, "ELEMENT_SET_NO": 999, "REV_AT_EPOCH": 59970, "BSTAR": 0.0004851142, "MEAN_MOTION_DOT": 6.19e-06, "MEAN_MOTION_DDOT": 0}, "tle": {"line1": "1 36692U 99025DZN 25358.57179580  .00000619  00000+0  48511-3 0  9993", "line2": "2 36692  99.9949 265.5847 0114465 342.2339  17.4832 13.93485945599707"}}, "geometry": {"type": "Point", "coordinates": [-84.19160673263075, -35.1413960582871]}}, {"type": "Feature", "properties": {"norad_id": 36695, "name": "FENGYUN 1C DEB", "group": "fengyun-1c-debris", "lat": -24.883740511461923, "lon": -13.864075183083667, "alt_km": 813.0074311568696, "timestamp": "2025-12-27T10:28:59.083267+00:00", "meta": {"OBJECT_NAME": "FENGYUN 1C DEB", "OBJECT_ID": "1999-025DZR", "EPOCH": "2025-12-26T16:18:14.524992", "MEAN_MOTION": 14.43772665, "ECCENTRICITY": 0.02577392, "INCLINATION": 98.2225, "RA_OF_ASC_NODE": 341.5575, "ARG_OF_PERICENTER": 88.1652, "MEAN_ANOMALY": 274.9036, "EPHEMERIS_TYPE": 0, "CLASSIFICATION_TYPE": "U", "NORAD_CAT_ID": 36695, "ELEMENT_SET_NO": 999, "REV_AT_EPOCH": 89769, "BSTAR": 0.00022580932, "MEAN_MOTION_DOT": 1.101e-05, "MEAN_MOTION_DDOT": 0}, "tle": {"line1": "1 36695U 99025DZR 25360.67933478  .00001101  00000+0  22581-3 0  9990", "line2": "2 36695  98.2225 341.5575 0257739  88.1652 274.9036 14.43772665897697"}}, "geometry": {"type": "Point", "coordinates": [-13.864075183083667, -24.883740511461923]}}, {"type": "Feature", "properties": {"norad_id": 36696, "name": "FENGYUN 1C DEB", "group": "fengyun-1c-debris", "lat": -9.447401700020036, "lon": 12.645864704111002, "alt_km": 757.9283808669607, "timestamp": "2025-12-27T10:28:59.083277+00:00", "meta": {"OBJECT_NAME": "FENGYUN 1C DEB", "OBJECT_ID": "1999-025DZS", "EPOCH": "2025-12-20T18:21:37.280448", "MEAN_MOTION": 14.39290248, "ECCENTRICITY": 0.0022773, "INCLINATION": 98.991, "RA_OF_ASC_NODE": 4.1437, "ARG_OF_PERICENTER": 304.9139, "MEAN_ANOMALY": 54.9908, "EPHEMERIS_TYPE": 0, "CLASSIFICATION_TYPE": "U", "NORAD_CAT_ID": 36696, "ELEMENT_SET_NO": 999, "REV_AT_EPOCH": 64511, "BSTAR": 0.0012348867, "MEAN_MOTION_DOT": 3.799e-05, "MEAN_MOTION_DDOT": 0}, "tle": {"line1": "1 36696U 99025DZS 25354.76501482  .00003799  00000+0  12349-2 0  9995", "line2": "2 36696  98.9910   4.1437 0022773 304.9139  54.9908 14.39290248645111"}}, "geometry": {"type": "Point", "coordinates": [12.645864704111002, -9.447401700020036]}}, {"type": "Feature", "properties": {"norad_id": 36699, "name": "FENGYUN 1C DEB", "group": "fengyun-1c-debris", "lat": -46.87005700539217, "lon": 4.811702169033383, "alt_km": 865.649229323898, "timestamp": "2025-12-27T10:28:59.083287+00:00", "meta": {"OBJECT_NAME": "FENGYUN 1C DEB", "OBJECT_ID": "1999-025DZV", "EPOCH": "2025-12-26T06:02:44.636064", "MEAN_MOTION": 14.24309134, "ECCENTRICITY": 0.009491, "INCLINATION": 98.5596, "RA_OF_ASC_NODE": 354.4053, "ARG_OF_PERICENTER": 91.1474, "MEAN_ANOMALY": 270.0581, "EPHEMERIS_TYPE": 0, "CLASSIFICATION_TYPE": "U", "NORAD_CAT_ID": 36699, "ELEMENT_SET_NO": 999, "REV_AT_EPOCH": 73519, "BSTAR": 0.00024958, "MEAN_MOTION_DOT": 5.62e-06, "MEAN_MOTION_DDOT": 0}, "tle": {"line1": "1 36699U 99025DZV 25360.25190551  .00000562  00000+0  24958-3 0  9995", "line2": "2 36699  98.5596 354.4053 0094910  91.1474 270.0581 14.24309134735199"}}, "geometry": {"type": "Point", "coordinates": [4.811702169033383, -46.87005700539217]}}, {"type": "Feature", "properties": {"norad_id": 36701, "name": "FENGYUN 1C DEB", "group": "fengyun-1c-debris", "lat": -0.580255053983558, "lon": -39.32288474651232, "alt_km": 1140.071893441941, "timestamp": "2025-12-27T10:28:59.083297+00:00", "meta": {"OBJECT_NAME": "FENGYUN 1C DEB", "OBJECT_ID": "1999-025DZX", "EPOCH": "2025-12-27T03:28:57.084960", "MEAN_MOTION": 13.7138675, "ECCENTRICITY": 0.0258066, "INCLINATION": 102.7468, "RA_OF_ASC_NODE": 320.1596, "ARG_OF_PERICENTER": 220.6261, "MEAN_ANOMALY": 137.5364, "EPHEMERIS_TYPE": 0, "CLASSIFICATION_TYPE": "U", "NORAD_CAT_ID": 36701, "ELEMENT_SET_NO": 999, "REV_AT_EPOCH": 61336, "BSTAR": 0.0019558, "MEAN_MOTION_DOT": 2.157e-05, "MEAN_MOTION_DDOT": 0}, "tle": {"line1": "1 36701U 99025DZX 25361.14510515  .00002157  00000+0  19558-2 0  9995", "line2": "2 36701 102.7468 320.1596 0258066 220.6261 137.5364 13.71386750613368"}}, "geometry": {"type": "Point", "coordinates": [-39.32288474651232, -0.580255053983558]}}, {"type": "Feature", "properties": {"norad_id": 36707, "name": "FENGYUN 1C DEB", "group": "fengyun-1c-debris", "lat": -12.666236652714371, "lon": -134.66154665850513, "alt_km": 852.24820534844, "timestamp": "2025-12-27T10:28:59.083308+00:00", "meta": {"OBJECT_NAME": "FENGYUN 1C DEB", "OBJECT_ID": "1999-025EAD", "EPOCH": "2025-12-21T21:25:47.185536", "MEAN_MOTION": 14.17337167, "ECCENTRICITY": 0.00496219, "INCLINATION": 98.751, "RA_OF_ASC_NODE": 41.8648, "ARG_OF_PERICENTER": 96.1028, "MEAN_ANOMALY": 264.5804, "EPHEMERIS_TYPE": 0, "CLASSIFICATION_TYPE": "U", "NORAD_CAT_ID": 36707, "ELEMENT_SET_NO": 999, "REV_AT_EPOCH": 64209, "BSTAR": 0.00072069372, "MEAN_MOTION_DOT": 1.432e-05, "MEAN_MOTION_DDOT": 0}, "tle": {"line1": "1 36707U 99025EAD 25355.89290724  .00001432  00000+0  72069-3 0  9995", "line2": "2 36707  98.7510  41.8648 0049621  96.1028 264.5804 14.17337167642094"}}, "geometry": {"type": "Point", "coordinates": [-134.66154665850513, -12.666236652714371]}}, {"type": "Feature", "properties": {"norad_id": 36710, "name": "FENGYUN 1C DEB", "group": "fengyun-1c-debris", "lat": 21.17209675981641, "lon": 55.20475863296524, "alt_km": 745.995631295973, "timestamp": "2025-12-27T10:28:59.083318+00:00", "meta": {"OBJECT_NAME": "FENGYUN 1C DEB", "OBJECT_ID": "1999-025EAG", "EPOCH": "2025-12-15T10:11:57.749280", "MEAN_MOTION": 14.49882943, "ECCENTRICITY": 0.00679739, "INCLINATION": 98.3812, "RA_OF_ASC_NODE": 46.5328, "ARG_OF_PERICENTER": 173.535, "MEAN_ANOMALY": 186.6737, "EPHEMERIS_TYPE": 0, "CLASSIFICATION_TYPE": "U", "NORAD_CAT_ID": 36710, "ELEMENT_SET_NO": 999, "REV_AT_EPOCH": 64992, "BSTAR": 0.00098752348, "MEAN_MOTION_DOT": 3.884e-05, "MEAN_MOTION_DDOT": 0}, "tle": {"line1": "1 36710U 99025EAG 25349.42497395  .00003884  00000+0  98752-3 0  9994", "line2": "2 36710  98.3812  46.5328 0067973 173.5350 186.6737 14.49882943649924"}}, "geometry": {"type": "Point", "coordinates": [55.20475863296524, 21.17209675981641]}}, {"type": "Feature", "properties": {"norad_id": 36711, "name": "FENGYUN 1C DEB", "group": "fengyun-1c-debris", "lat": -50.78403867447321, "lon": -168.92191429530956, "alt_km": 725.0379555576519, "timestamp": "2025-12-27T10:28:59.083328+00:00", "meta": {"OBJECT_NAME": "FENGYUN 1C DEB", "OBJECT_ID": "1999-025EAH", "EPOCH": "2025-12-22T19:33:17.805888", "MEAN_MOTION": 14.42563106, "ECCENTRICITY": 0.01001116, "INCLINATION": 100.8026, "RA_OF_ASC_NODE": 18.7671, "ARG_OF_PERICENTER": 180.6159, "MEAN_ANOMALY": 179.4915, "EPHEMERIS_TYPE": 0, "CLASSIFICATION_TYPE": "U", "NORAD_CAT_ID": 36711, "ELEMENT_SET_NO": 999, "REV_AT_EPOCH": 64456, "BSTAR": 0.0021992157, "MEAN_MOTION_DOT": 7.693e-05, "MEAN_MOTION_DDOT": 0}, "tle": {"line1": "1 36711U 99025EAH 25356.81478942  .00007693  00000+0  21992-2 0  9996", "line2": "2 36711 100.8026  18.7671 0100111 180.6159 179.4915 14.42563106644564"}}, "geometry": {"type": "Point", "coordinates": [-168.92191429530956, -50.78403867447321]}}, {"type": "Feature", "properties": {"norad_id": 36716, "name": "FENGYUN 1C DEB", "group": "fengyun-1c-debris", "lat": -66.0655922594923, "lon": -58.17836194426592, "alt_km": 964.4117512279881, "timestamp": "2025-12-27T10:28:59.083338+00:00", "meta": {"OBJECT_NAME": "FENGYUN 1C DEB", "OBJECT_ID": "1999-025EAN", "EPOCH": "2025-12-24T13:38:03.454656", "MEAN_MOTION": 13.8842033, "ECCENTRICITY": 0.01483644, "INCLINATION": 99.2293, "RA_OF_ASC_NODE": 277.4949, "ARG_OF_PERICENTER": 196.842, "MEAN_ANOMALY": 162.7782, "EPHEMERIS_TYPE": 0, "CLASSIFICATION_TYPE": "U", "NORAD_CAT_ID": 36716, "ELEMENT_SET_NO": 999, "REV_AT_EPOCH": 63095, "BSTAR": 0.00021899669, "MEAN_MOTION_DOT": 2.42e-06, "MEAN_MOTION_DDOT": 0}, "tle": {"line1": "1 36716U 99025EAN 25358.56809554  .00000242  00000+0  21900-3 0  9995", "line2": "2 36716  99.2293 277.4949 0148364 196.8420 162.7782 13.88420330630955"}}, "geometry": {"type": "Point", "coordinates": [-58.17836194426592, -66.0655922594923]}}, {"type": "Feature", "properties": {"norad_id": 36724, "name": "FENGYUN 1C DEB", "group": "fengyun-1c-debris", "lat": -48.88825449432743, "lon": 45.35317365386503, "alt_km": 880.7296461144733, "timestamp": "2025-12-27T10:28:59.083348+00:00", "meta": {"OBJECT_NAME": "FENGYUN 1C DEB", "OBJECT_ID": "1999-025EAW", "EPOCH": "2025-12-22T01:08:19.052736", "MEAN_MOTION": 14.25358317, "ECCENTRICITY": 0.01037225, "INCLINATION": 99.4676, "RA_OF_ASC_NODE": 28.5169, "ARG_OF_PERICENTER": 171.606, "MEAN_ANOMALY": 218.6674, "EPHEMERIS_TYPE": 0, "CLASSIFICATION_TYPE": "U", "NORAD_CAT_ID": 36724, "ELEMENT_SET_NO": 999, "REV_AT_EPOCH": 57605, "BSTAR": 0.0017254927, "MEAN_MOTION_DOT": 4.254e-05, "MEAN_MOTION_DDOT": 0}, "tle": {"line1": "1 36724U 99025EAW 25356.04744274  .00004254  00000+0  17255-2 0  9996", "line2": "2 36724  99.4676  28.5169 0103722 171.6060 218.6674 14.25358317576058"}}, "geometry": {"type": "Point", "coordinates": [45.35317365386503, -48.88825449432743]}}]}